COSMOS 2547 [GLONASS-K] 
1 46805U 20075A   26061.42179443 -.00000012  00000+0  00000+0 0  9998
2 46805  64.5998 196.0353 0006707 229.5207 130.3796  2.13100073 41630
NAVSTAR 80 (USA 309)    
1 46826U 20078A   26061.80797074 -.00000010  00000+0  00000+0 0  9990
2 46826  54.0020 215.0904 0068149 204.2599 325.6195  2.00565488 39370
GSAT0223 (GALILEO 27)   
1 49809U 21116A   26048.03988929 -.00000078  00000+0  00000+0 0  9993
2 49809  57.2005 344.9238 0002865 278.1950 264.6358  1.70475508 26130
GSAT0224 (GALILEO 28)   
1 49810U 21116B   26054.89517960 -.00000088  00000+0  00000+0 0  9990
2 49810  57.1984 344.7369 0002182 291.9502 250.7131  1.70475193 26278
GOES 18                 
1 51850U 22021A   26061.77267117  .00000080  00000+0  00000+0 0  9995
2 51850   0.0258  75.1977 0000548 314.4181 272.0750  1.00271247  5520
COSMOS 2557 [GLONASS-K] 
1 52984U 22075A   26060.64837998 -.00000049  00000+0  00000+0 0  9994
2 52984  64.3609 318.2759 0011670 283.4611  76.4636  2.13101625 28422
METEOSAT-12 (MTG-I1)    
1 54743U 22170C   26061.73072127 -.00000023  00000+0  00000+0 0  9993
2 54743   0.7438  28.9118 0001928 281.1614 113.1972  1.00274508 11912
METEOR-M2 3             
1 57166U 23091A   26061.86158166  .00000035  00000+0  34032-4 0  9999
2 57166  98.6229 118.9501 0005019 114.6976 245.4726 14.24036842139385
COSMOS 2569 [GLONASS-K2]
1 57517U 23114A   26061.73205006  .00000029  00000+0  00000+0 0  9993
2 57517  65.2407  76.2094 0012883 291.5074  68.4049  2.13103917 19995
METEOR-M2 4             
1 59051U 24039A   26061.82589655  .00000039  00000+0  37299-4 0  9996
2 59051  98.6894  22.5308 0008040 113.6029 246.5993 14.22415848104147
GSAT0225 (GALILEO 29)   
1 59598U 24079A   26061.64714836  .00000013  00000+0  00000+0 0  9994
2 59598  55.0484 104.0564 0002516 256.8199 102.5977  1.70474817 11493
GSAT0227 (GALILEO 30)   
1 59600U 24079C   26060.07188623  .00000010  00000+0  00000+0 0  9990
2 59600  55.0426 104.0995 0000415  85.7874 274.2997  1.70474778 11525
GSAT0232 (GALILEO 32)   
1 61182U 24167A   26048.66150565  .00000069  00000+0  00000+0 0  9995
2 61182  55.2225 224.5881 0003600 296.6314 116.1306  1.70443939  8265
GSAT0226 (GALILEO 31)   
1 61183U 24167B   26061.41649845  .00000011  00000+0  00000+0 0  9995
2 61183  55.2184 224.2466 0001611 129.2375 282.9718  1.70474130  9036
GSAT0233 (GALILEO 33)   
1 67160U 25302A   26044.50000000 -.00000008  00000+0  00000+0 0  9990
2 67160  54.3935 105.2952 0003011 207.0582 359.4109  1.70474578    20
GSAT0234 (GALILEO 34)   
1 67162U 25302C   26044.50000000 -.00000008  00000+0  00000+0 0  9992
2 67162  54.3967 105.2938 0003081 266.8423 119.7309  1.70475065   127
